STARLINK-30810          
1 58178U 23167D   26067.27332530 -.00002157  00000+0 -70786-4 0  9992
2 58178  42.9955 150.9596 0000513 285.2891  74.7904 15.26740310130772
FLOCK 4G-36             
1 62675U 25009BU  26068.70726311  .00013573  00000+0  51122-3 0  9993
2 62675  97.4053 151.0513 0003474 324.2456  35.8550 15.27209548 63701
